NORAD_CAT_ID,OBJECT_NAME,OBJECT_TYPE,EPOCH,MEAN_MOTION,ECCENTRICITY,INCLINATION,RA_OF_ASC_NODE,ARG_OF_PERICENTER,MEAN_ANOMALY,BSTAR,MEAN_MOTION_DOT,MEAN_MOTION_DDOT,TLE_LINE0,TLE_LINE1,TLE_LINE2,SEMIMAJOR_AXIS,PERIOD,APOGEE,PERIGEE,DECAYED
54091.0,STARLINK-5221,PAYLOAD,2023-10-31 12:31:00,15.08845241,0.00012,53.2174,235.1637,94.1075,266.0055,0.00034774,5.252e-05,0.0,0 STARLINK-5221,1 54091U 22136AS  23304.52153137  .00005252  00000-0  34774-3 0  9994,2 54091  53.2174 235.1637 0001200  94.1075 266.0055 15.08845241 57137,6917.864,95.437,540.56,538.899,0.0
54091.0,STARLINK-5221,PAYLOAD,2023-11-01 02:49:28,15.08842819,0.0001506,53.2176,232.487,93.3586,266.7578,0.00020719,3.011e-05,0.0,0 STARLINK-5221,1 54091U 22136AS  23305.11769337  .00003011  00000-0  20719-3 0  9990,2 54091  53.2176 232.4870 0001506  93.3586 266.7578 15.08842819 57691,6917.872,95.437,540.779,538.695,0.0
54091.0,STARLINK-5221,PAYLOAD,2023-11-01 12:21:47,15.08845162,0.000149,53.2176,230.7024,87.7845,272.3317,0.00018976,2.734e-05,0.0,0 STARLINK-5221,1 54091U 22136AS  23305.51513196  .00002734  00000-0  18976-3 0  9997,2 54091  53.2176 230.7024 0001490  87.7845 272.3317 15.08845162 57283,6917.865,95.437,540.76,538.699,0.0
54091.0,STARLINK-5221,PAYLOAD,2023-11-02 04:15:38,15.0885842,0.0001291,53.2172,227.7302,90.9456,269.1684,0.00036406,5.514e-05,0.0,0 STARLINK-5221,1 54091U 22136AS  23306.17752511  .00005514  00000-0  36406-3 0  9993,2 54091  53.2172 227.7302 0001291  90.9456 269.1684 15.08858420 57852,6917.824,95.436,540.582,538.796,0.0
54091.0,STARLINK-5221,PAYLOAD,2023-11-02 12:12:34,15.08839042,0.0001654,53.2181,226.2432,80.4319,279.686,1.034e-05,-1.23e-06,0.0,0 STARLINK-5221,1 54091U 22136AS  23306.50873497 -.00000123  00000-0  10340-4 0  9999,2 54091  53.2181 226.2432 0001654  80.4319 279.6860 15.08839042 57902,6917.883,95.438,540.893,538.604,0.0
54091.0,STARLINK-5221,PAYLOAD,2023-11-03 04:06:25,15.08848126,0.0001403,53.2172,223.2653,93.4811,266.6342,0.00012949,1.774e-05,0.0,0 STARLINK-5221,1 54091U 22136AS  23307.17112873  .00001774  00000-0  12949-3 0  9995,2 54091  53.2172 223.2653 0001403  93.4811 266.6342 15.08848126 58003,6917.856,95.437,540.691,538.75,0.0
54091.0,STARLINK-5221,PAYLOAD,2023-11-03 12:03:21,15.08841711,0.0001546,53.218,221.7787,97.4326,262.6842,6.4167e-05,7.33e-06,0.0,0 STARLINK-5221,1 54091U 22136AS  23307.50233219  .00000733  00000-0  64167-4 0  9994,2 54091  53.2180 221.7787 0001546  97.4326 262.6842 15.08841711 57582,6917.875,95.437,540.81,538.671,0.0
54091.0,STARLINK-5221,PAYLOAD,2023-11-03 21:35:40,15.08843212,0.0001592,53.2184,219.9949,96.5813,263.5361,7.9342e-05,9.75e-06,0.0,0 STARLINK-5221,1 54091U 22136AS  23307.89977160  .00000975  00000-0  79342-4 0  9995,2 54091  53.2184 219.9949 0001592  96.5813 263.5361 15.08843212 57648,6917.871,95.437,540.837,538.634,0.0
54091.0,STARLINK-5221,PAYLOAD,2023-11-04 03:57:12,15.08854841,0.0001563,53.2172,218.805,104.6691,255.4475,0.00016124,2.28e-05,0.0,0 STARLINK-5221,1 54091U 22136AS  23308.16472488  .00002280  00000-0  16124-3 0  9998,2 54091  53.2172 218.8050 0001563 104.6691 255.4475 15.08854841 58152,6917.835,95.437,540.781,538.619,0.0
54091.0,STARLINK-5221,PAYLOAD,2023-11-04 21:26:27,15.08840582,0.0001605,53.2173,215.5334,108.8087,251.308,0.00011277,1.507e-05,0.0,0 STARLINK-5221,1 54091U 22136AS  23308.89337271  .00001507  00000-0  11277-3 0  9993,2 54091  53.2173 215.5334 0001605 108.8087 251.3080 15.08840582 57797,6917.879,95.438,540.854,538.633,0.0
54091.0,STARLINK-5221,PAYLOAD,2023-11-05 03:47:59,15.08854364,0.0001503,53.2165,214.3446,89.0376,271.0788,0.00036837,5.582e-05,0.0,0 STARLINK-5221,1 54091U 22136AS  23309.15832905  .00005582  00000-0  36837-3 0  9993,2 54091  53.2165 214.3446 0001503  89.0376 271.0788 15.08854364 58302,6917.836,95.437,540.741,538.662,0.0
54091.0,STARLINK-5221,PAYLOAD,2023-11-05 21:17:13,15.0886597,0.0001527,53.2163,211.0739,86.4268,273.6899,0.00060364,9.339e-05,0.0,0 STARLINK-5221,1 54091U 22136AS  23309.88696278  .00009339  00000-0  60364-3 0  9990,2 54091  53.2163 211.0739 0001527  86.4268 273.6899 15.08865970 57941,6917.801,95.436,540.722,538.61,0.0
54091.0,STARLINK-5221,PAYLOAD,2023-11-06 00:27:59,15.08899809,0.0001347,53.2164,210.4799,93.4953,266.6193,0.0018534,0.00029381,0.0,0 STARLINK-5221,1 54091U 22136AS  23310.01943505  .00029381  00000-0  18534-2 0  9995,2 54091  53.2164 210.4799 0001347  93.4953 266.6193 15.08899809 58432,6917.698,95.434,540.494,538.631,0.0
54091.0,STARLINK-5221,PAYLOAD,2023-11-06 10:00:17,15.08887234,0.0001541,53.2176,208.6981,79.9865,280.1302,0.00086715,0.00013557,0.0,0 STARLINK-5221,1 54091U 22136AS  23310.41686546  .00013557  00000-0  86715-3 0  9993,2 54091  53.2176 208.6981 0001541  79.9865 280.1302 15.08887234 58492,6917.736,95.435,540.667,538.535,0.0
54091.0,STARLINK-5221,PAYLOAD,2023-11-06 21:08:00,15.08810831,0.0001268,53.2161,206.6134,52.7474,307.3634,-0.0015229,-0.00024423,0.0,0 STARLINK-5221,1 54091U 22136AS  23310.88055729 -.00024423  00000-0 -15229-2 0  9994,2 54091  53.2161 206.6134 0001268  52.7474 307.3634 15.08810831 58090,6917.97,95.439,540.712,538.957,0.0
54091.0,STARLINK-5221,PAYLOAD,2023-11-07 01:54:10,15.08793384,0.0001266,53.2157,205.7224,71.2796,288.8333,-0.0014131,-0.00022678,0.0,0 STARLINK-5221,1 54091U 22136AS  23311.07929056 -.00022678  00000-0 -14131-2 0  9990,2 54091  53.2157 205.7224 0001266  71.2796 288.8333 15.08793384 58593,6918.023,95.441,540.764,539.012,0.0
54091.0,STARLINK-5221,PAYLOAD,2023-11-07 09:51:07,15.08794749,0.0001635,53.2173,204.2411,98.1376,261.9802,-0.0007762,-0.00012605,0.0,0 STARLINK-5221,1 54091U 22136AS  23311.41050267 -.00012605  00000-0 -77620-3 0  9999,2 54091  53.2173 204.2411 0001635  98.1376 261.9802 15.08794749 58640,6918.019,95.44,541.015,538.753,0.0
54091.0,STARLINK-5221,PAYLOAD,2023-11-08 01:45:00,15.08812114,0.0001212,53.2164,201.2651,92.2692,267.8438,0.00091656,0.00014318,0.0,0 STARLINK-5221,1 54091U 22136AS  23312.07291885  .00014318  00000-0  91656-3 0  9991,2 54091  53.2164 201.2651 0001212  92.2692 267.8438 15.08812114 58748,6917.966,95.439,540.669,538.992,0.0
54091.0,STARLINK-5221,PAYLOAD,2023-11-08 22:25:00,15.08873681,0.0001271,53.2158,197.3999,92.7233,267.3904,0.0017791,0.00028166,0.0,0 STARLINK-5221,1 54091U 22136AS  23312.93403474  .00028166  00000-0  17791-2 0  9998,2 54091  53.2158 197.3999 0001271  92.7233 267.3904 15.08873681 58404,6917.777,95.435,540.522,538.763,0.0
54091.0,STARLINK-5221,PAYLOAD,2023-11-09 00:00:23,15.08878573,0.0001274,53.2158,197.1021,93.9331,266.1807,0.0018228,0.00028872,0.0,0 STARLINK-5221,1 54091U 22136AS  23313.00027284  .00028872  00000-0  18228-2 0  9998,2 54091  53.2158 197.1021 0001274  93.9331 266.1807 15.08878573 58889,6917.762,95.435,540.509,538.746,0.0
54091.0,STARLINK-5221,PAYLOAD,2023-11-09 22:15:46,15.08868507,0.0001662,53.2154,192.9378,153.246,206.8618,0.0014733,0.00023256,0.0,0 STARLINK-5221,1 54091U 22136AS  23313.92762296  .00023256  00000-0  14733-2 0  9996,2 54091  53.2154 192.9378 0001662 153.2460 206.8618 15.08868507 58558,6917.793,95.436,540.808,538.509,0.0
54091.0,STARLINK-5221,PAYLOAD,2023-11-10 01:26:33,15.0886525,0.0001232,53.2151,192.3483,123.6678,236.4431,0.0012173,0.00019152,0.0,0 STARLINK-5221,1 54091U 22136AS  23314.06010441  .00019152  00000-0  12173-2 0  9996,2 54091  53.2151 192.3483 0001232 123.6678 236.4431 15.08865250 59040,6917.803,95.436,540.52,538.816,0.0
54091.0,STARLINK-5221,PAYLOAD,2023-11-10 09:23:29,15.08846353,0.0002097,53.2159,190.8555,89.9358,270.1875,0.00063936,9.904e-05,0.0,0 STARLINK-5221,1 54091U 22136AS  23314.39130815  .00009904  00000-0  63936-3 0  9998,2 54091  53.2159 190.8555 0002097  89.9358 270.1875 15.08846353 59095,6917.861,95.437,541.177,538.275,0.0
54091.0,STARLINK-5221,PAYLOAD,2023-11-10 22:06:33,15.08850912,0.0001489,53.2161,188.475,99.1839,260.9321,0.00026089,3.868e-05,0.0,0 STARLINK-5221,1 54091U 22136AS  23314.92122200  .00003868  00000-0  26089-3 0  9997,2 54091  53.2161 188.4750 0001489  99.1839 260.9321 15.08850912 58705,6917.847,95.437,540.742,538.682,0.0
54091.0,STARLINK-5221,PAYLOAD,2023-11-11 09:14:15,15.08843121,0.000172,53.2156,186.3908,103.056,257.0624,-2.2361e-05,-6.44e-06,0.0,0 STARLINK-5221,1 54091U 22136AS  23315.38490211 -.00000644  00000-0 -22361-4 0  9999,2 54091  53.2156 186.3908 0001720 103.0560 257.0624 15.08843121 59242,6917.871,95.437,540.926,538.546,0.0
54091.0,STARLINK-5221,PAYLOAD,2023-11-11 21:57:21,15.0883886,0.0001654,53.2164,184.0161,89.5291,270.5891,-1.092e-05,-4.62e-06,0.0,0 STARLINK-5221,1 54091U 22136AS  23315.91482661 -.00000462  00000-0 -10920-4 0  9994,2 54091  53.2164 184.0161 0001654  89.5291 270.5891 15.08838860 58858,6917.884,95.438,540.893,538.605,0.0
54091.0,STARLINK-5221,PAYLOAD,2023-11-12 01:08:07,15.08840122,0.0001692,53.2166,183.4211,91.3448,268.7738,2.4761e-05,1.06e-06,0.0,0 STARLINK-5221,1 54091U 22136AS  23316.04730723  .00000106  00000-0  24761-4 0  9995,2 54091  53.2166 183.4211 0001692  91.3448 268.7738 15.08840122 58871,6917.88,95.438,540.916,538.575,0.0
54091.0,STARLINK-5221,PAYLOAD,2023-11-12 18:37:21,15.08847426,0.0001519,53.2165,180.1507,91.6252,268.4914,0.00015694,2.211e-05,0.0,0 STARLINK-5221,1 54091U 22136AS  23316.77594301  .00002211  00000-0  15694-3 0  9998,2 54091  53.2165 180.1507 0001519  91.6252 268.4914 15.08847426 59458,6917.858,95.437,540.774,538.672,0.0
54091.0,STARLINK-5221,PAYLOAD,2023-11-12 21:48:07,15.08851136,0.0001438,53.216,179.5569,86.5888,273.5268,0.00013942,1.932e-05,0.0,0 STARLINK-5221,1 54091U 22136AS  23316.90842063  .00001932  00000-0  13942-3 0  9997,2 54091  53.2160 179.5569 0001438  86.5888 273.5268 15.08851136 59004,6917.846,95.437,540.706,538.717,0.0
54091.0,STARLINK-5221,PAYLOAD,2023-11-13 21:38:54,15.088421,0.0001478,53.2154,175.0958,85.5156,274.6005,0.00014854,2.077e-05,0.0,0 STARLINK-5221,1 54091U 22136AS  23317.90202377  .00002077  00000-0  14854-3 0  9990,2 54091  53.2154 175.0958 0001478  85.5156 274.6005 15.08842100 59159,6917.874,95.437,540.761,538.717,0.0
